51649,ONEWEB-0461,2022,109.29,148.0,+,87.91,Active,1,LEO,French Guiana,UK,Commercial,Communications,Soyuz,1 51649U 22012AD  24363.04379367  .00000033  00000+0  51523-4 0  9994,2 51649  87.9100 112.6671 0001727 103.8048 256.3276 13.17648092144570,13.17648092,0.0001727,LEO
51650,ONEWEB-0463,2022,109.29,148.0,+,87.91,Active,1,LEO,French Guiana,UK,Commercial,Communications,Soyuz,1 51650U 22012AE  24362.79742999  .00000012  00000+0 -32835-5 0  9996,2 51650  87.9107 112.7717 0001684 100.4896 259.6425 13.17648514143038,13.17648514,0.0001684,LEO
51651,ONEWEB-0464,2022,109.89,148.0,+,87.89,Active,1,LEO,French Guiana,UK,Commercial,Communications,Soyuz,1 51651U 22012AF  24363.38507528  .00000704  00000+0  19805-2 0  9996,2 51651  87.8909 143.0095 0001159 106.8213 253.3042 13.10373012140454,13.10373012,0.0001159,LEO
51652,ONEWEB-0468,2022,109.89,148.0,+,87.89,Active,1,LEO,French Guiana,UK,Commercial,Communications,Soyuz,1 51652U 22012AG  24362.78085283  .00000522  00000+0  14595-2 0  9998,2 51652  87.8904 143.1215 0001458 101.6468 258.4823 13.10369771139056,13.10369771,0.0001458,LEO
51653,ONEWEB-0473,2022,109.89,148.0,+,87.89,Active,1,LEO,French Guiana,UK,Commercial,Communications,Soyuz,1 51653U 22012AH  24363.37677612  .00000534  00000+0  14928-2 0  9991,2 51653  87.8909 143.0068 0001410  95.7528 264.3760 13.10374761140430,13.10374761,0.000141,LEO
51654,ONEWEB-0474,2022,109.89,148.0,+,87.89,Active,1,LEO,French Guiana,UK,Commercial,Communications,Soyuz,1 51654U 22012AJ  24363.29211058  .00000187  00000+0  49900-3 0  9994,2 51654  87.8900 143.0025 0001237  96.8578 263.2690 13.10376656140401,13.10376656,0.0001237,LEO
51655,ONEWEB-0475,2022,109.29,148.0,+,87.91,Active,1,LEO,French Guiana,UK,Commercial,Communications,Soyuz,1 51655U 22012AK  24362.80924405 -.00000013  00000+0 -65705-4 0  9990,2 51655  87.9107 112.7487 0001162  75.4340 284.6921 13.17648166143057,13.17648166,0.0001162,LEO
54113,ONEWEB-0490,2022,109.11,148.0,+,87.92,Active,1,LEO,India,UK,Commercial,Communications,PSLV,1 54113U 22138A   24363.41311857 -.00000002  00000+0 -37909-4 0  9993,2 54113  87.9161  51.4873 0001679 100.3430 259.7892 13.19724061107037,13.19724061,0.0001679,LEO
